{"type": "FeatureCollection", "features": [ {"type": "Feature", "properties": {"norad_id": 43437, "name": "SENTINEL-3B", "group": "resource", "lat": -0.1650921813532091, "lon": -117.58428254992482, "alt_km": 805.6002932273559, "timestamp": "2025-12-23T09:49:06.734036+00:00", "meta": {"OBJECT_NAME": "SENTINEL-3B", "OBJECT_ID": "2018-039A", "EPOCH": "2025-12-22T19:30:45.179424", "MEAN_MOTION": 14.26737752, "ECCENTRICITY": 0.00016214, "INCLINATION": 98.6254, "RA_OF_ASC_NODE": 61.8534, "ARG_OF_PERICENTER": 91.9205, "MEAN_ANOMALY": 268.2161, "EPHEMERIS_TYPE": 0, "CLASSIFICATION_TYPE": "U", "NORAD_CAT_ID": 43437, "ELEMENT_SET_NO": 999, "REV_AT_EPOCH": 39897, "BSTAR": 7.2567326e-05, "MEAN_MOTION_DOT": 1.32e-06, "MEAN_MOTION_DDOT": 0}, "tle": {"line1": "1 43437U 18039A   25356.81302291  .00000132  00000+0  72567-4 0  9995", "line2": "2 43437  98.6254  61.8534 0001621  91.9205 268.2161 14.26737752398976"}}, "geometry": {"type": "Point", "coordinates": [-117.58428254992482, -0.1650921813532091]}}, {"type": "Feature", "properties": {"norad_id": 43461, "name": "GAOFEN-5 01", "group": "resource", "lat": 20.490107567173492, "lon": -42.61501204822327, "alt_km": 691.9623539168406, "timestamp": "2025-12-23T09:49:06.734046+00:00", "meta": {"OBJECT_NAME": "GAOFEN-5 01", "OBJECT_ID": "2018-043A", "EPOCH": "2025-12-22T22:12:48.981888", "MEAN_MOTION": 14.60420499, "ECCENTRICITY": 5.174e-05, "INCLINATION": 98.4342, "RA_OF_ASC_NODE": 320.0714, "ARG_OF_PERICENTER": 264.8511, "MEAN_ANOMALY": 95.263, "EPHEMERIS_TYPE": 0, "CLASSIFICATION_TYPE": "U", "NORAD_CAT_ID": 43461, "ELEMENT_SET_NO": 999, "REV_AT_EPOCH": 40596, "BSTAR": 0.00010513854, "MEAN_MOTION_DOT": 4.6e-06, "MEAN_MOTION_DDOT": 0}, "tle": {"line1": "1 43461U 18043A   25356.92556692  .00000460  00000+0  10514-3 0  9992", "line2": "2 43461  98.4342 320.0714 0000517 264.8511  95.2630 14.60420499405965"}}, "geometry": {"type": "Point", "coordinates": [-42.61501204822327, 20.490107567173492]}}, {"type": "Feature", "properties": {"norad_id": 43484, "name": "GAOFEN-6", "group": "resource", "lat": -80.50967739024667, "lon": 116.42127006040084, "alt_km": 651.4557702202383, "timestamp": "2025-12-23T09:49:06.734056+00:00", "meta": {"OBJECT_NAME": "GAOFEN-6", "OBJECT_ID": "2018-048A", "EPOCH": "2025-12-22T22:48:59.019840", "MEAN_MOTION": 14.76583084, "ECCENTRICITY": 0.0012683, "INCLINATION": 97.802, "RA_OF_ASC_NODE": 60.8744, "ARG_OF_PERICENTER": 33.4774, "MEAN_ANOMALY": 326.7236, "EPHEMERIS_TYPE": 0, "CLASSIFICATION_TYPE": "U", "NORAD_CAT_ID": 43484, "ELEMENT_SET_NO": 999, "REV_AT_EPOCH": 40738, "BSTAR": 0.00013083204, "MEAN_MOTION_DOT": 8.65e-06, "MEAN_MOTION_DDOT": 0}, "tle": {"line1": "1 43484U 18048A   25356.95068310  .00000865  00000+0  13083-3 0  9993", "line2": "2 43484  97.8020  60.8744 0012683  33.4774 326.7236 14.76583084407385"}}, "geometry": {"type": "Point", "coordinates": [116.42127006040084, -80.50967739024667]}}, {"type": "Feature", "properties": {"norad_id": 43585, "name": "GAOFEN-11 01", "group": "resource", "lat": -6.753541363856228, "lon": 61.10726923998971, "alt_km": 422.43156302532134, "timestamp": "2025-12-23T09:49:06.734067+00:00", "meta": {"OBJECT_NAME": "GAOFEN-11 01", "OBJECT_ID": "2018-063A", "EPOCH": "2025-12-22T22:59:54.287808", "MEAN_MOTION": 15.49486442, "ECCENTRICITY": 0.00038998, "INCLINATION": 97.1549, "RA_OF_ASC_NODE": 59.8077, "ARG_OF_PERICENTER": 259.4441, "MEAN_ANOMALY": 100.6371, "EPHEMERIS_TYPE": 0, "CLASSIFICATION_TYPE": "U", "NORAD_CAT_ID": 43585, "ELEMENT_SET_NO": 999, "REV_AT_EPOCH": 41300, "BSTAR": 0.00015700889, "MEAN_MOTION_DOT": 8.551e-05, "MEAN_MOTION_DDOT": 0}, "tle": {"line1": "1 43585U 18063A   25356.95826722  .00008551  00000+0  15701-3 0  9990", "line2": "2 43585  97.1549  59.8077 0003899 259.4441 100.6371 15.49486442413009"}}, "geometry": {"type": "Point", "coordinates": [61.10726923998971, -6.753541363856228]}}, {"type": "Feature", "properties": {"norad_id": 43613, "name": "ICESAT-2", "group": "resource", "lat": -2.4412612698049756, "lon": -116.29776912465528, "alt_km": 485.47499799871184, "timestamp": "2025-12-23T09:49:06.734077+00:00", "meta": {"OBJECT_NAME": "ICESAT-2", "OBJECT_ID": "2018-070A", "EPOCH": "2025-12-22T22:49:44.061888", "MEAN_MOTION": 15.28291685, "ECCENTRICITY": 0.00031392, "INCLINATION": 92.0041, "RA_OF_ASC_NODE": 243.4932, "ARG_OF_PERICENTER": 119.4893, "MEAN_ANOMALY": 240.667, "EPHEMERIS_TYPE": 0, "CLASSIFICATION_TYPE": "U", "NORAD_CAT_ID": 43613, "ELEMENT_SET_NO": 999, "REV_AT_EPOCH": 40554, "BSTAR": 0.00048671537, "MEAN_MOTION_DOT": 0.00013415, "MEAN_MOTION_DDOT": 0}, "tle": {"line1": "1 43613U 18070A   25356.95120442  .00013415  00000+0  48672-3 0  9994", "line2": "2 43613  92.0041 243.4932 0003139 119.4893 240.6670 15.28291685405543"}}, "geometry": {"type": "Point", "coordinates": [-116.29776912465528, -2.4412612698049756]}}, {"type": "Feature", "properties": {"norad_id": 43719, "name": "HYSIS", "group": "resource", "lat": 30.546944125138904, "lon": 55.56838401335241, "alt_km": 631.3462684311735, "timestamp": "2025-12-23T09:49:06.734088+00:00", "meta": {"OBJECT_NAME": "HYSIS", "OBJECT_ID": "2018-096A", "EPOCH": "2025-12-22T22:18:39.199104", "MEAN_MOTION": 14.7866931, "ECCENTRICITY": 9.007e-05, "INCLINATION": 98.0086, "RA_OF_ASC_NODE": 59.8573, "ARG_OF_PERICENTER": 55.1211, "MEAN_ANOMALY": 305.0084, "EPHEMERIS_TYPE": 0, "CLASSIFICATION_TYPE": "U", "NORAD_CAT_ID": 43719, "ELEMENT_SET_NO": 999, "REV_AT_EPOCH": 38137, "BSTAR": 0.00012992805, "MEAN_MOTION_DOT": 9e-06, "MEAN_MOTION_DDOT": 0}, "tle": {"line1": "1 43719U 18096A   25356.92962036  .00000900  00000+0  12993-3 0  9991", "line2": "2 43719  98.0086  59.8573 0000900  55.1211 305.0084 14.78669310381375"}}, "geometry": {"type": "Point", "coordinates": [55.56838401335241, 30.546944125138904]}}, {"type": "Feature", "properties": {"norad_id": 43783, "name": "KAZSTSAT", "group": "resource", "lat": -19.16519210241571, "lon": 34.74155722997594, "alt_km": 571.7560774122285, "timestamp": "2025-12-23T09:49:06.734098+00:00", "meta": {"OBJECT_NAME": "KAZSTSAT", "OBJECT_ID": "2018-099AB", "EPOCH": "2025-12-22T14:41:03.844320", "MEAN_MOTION": 14.9936775, "ECCENTRICITY": 0.00061051, "INCLINATION": 97.4521, "RA_OF_ASC_NODE": 31.3714, "ARG_OF_PERICENTER": 285.7484, "MEAN_ANOMALY": 74.3066, "EPHEMERIS_TYPE": 0, "CLASSIFICATION_TYPE": "U", "NORAD_CAT_ID": 43783, "ELEMENT_SET_NO": 999, "REV_AT_EPOCH": 38484, "BSTAR": 3.8242971e-05, "MEAN_MOTION_DOT": 4.12e-06, "MEAN_MOTION_DDOT": 0}, "tle": {"line1": "1 43783U 18099AB  25356.61185005  .00000412  00000+0  38243-4 0  9999", "line2": "2 43783  97.4521  31.3714 0006105 285.7484  74.3066 14.99367750384848"}}, "geometry": {"type": "Point", "coordinates": [34.74155722997594, -19.16519210241571]}}, {"type": "Feature", "properties": {"norad_id": 43831, "name": "SAUDISAT 5A", "group": "resource", "lat": -35.640829505785725, "lon": 62.69244532445293, "alt_km": 493.3220709966954, "timestamp": "2025-12-23T09:49:06.734108+00:00", "meta": {"OBJECT_NAME": "SAUDISAT 5A", "OBJECT_ID": "2018-102A", "EPOCH": "2025-12-22T22:57:28.480032", "MEAN_MOTION": 15.25775685, "ECCENTRICITY": 0.00112326, "INCLINATION": 97.3334, "RA_OF_ASC_NODE": 56.9504, "ARG_OF_PERICENTER": 44.6483, "MEAN_ANOMALY": 315.5658, "EPHEMERIS_TYPE": 0, "CLASSIFICATION_TYPE": "U", "NORAD_CAT_ID": 43831, "ELEMENT_SET_NO": 999, "REV_AT_EPOCH": 38878, "BSTAR": 0.00026255251, "MEAN_MOTION_DOT": 6.646e-05, "MEAN_MOTION_DDOT": 0}, "tle": {"line1": "1 43831U 18102A   25356.95657963  .00006646  00000+0  26255-3 0  9996", "line2": "2 43831  97.3334  56.9504 0011232  44.6483 315.5658 15.25775685388785"}}, "geometry": {"type": "Point", "coordinates": [62.69244532445293, -35.640829505785725]}}, {"type": "Feature", "properties": {"norad_id": 43833, "name": "SAUDISAT 5B", "group": "resource", "lat": 29.509894438499465, "lon": 55.966290413446885, "alt_km": 478.0978695202575, "timestamp": "2025-12-23T09:49:06.734118+00:00", "meta": {"OBJECT_NAME": "SAUDISAT 5B", "OBJECT_ID": "2018-102C", "EPOCH": "2025-12-22T22:40:24.208896", "MEAN_MOTION": 15.26122766, "ECCENTRICITY": 0.00119745, "INCLINATION": 97.3431, "RA_OF_ASC_NODE": 59.6958, "ARG_OF_PERICENTER": 46.6576, "MEAN_ANOMALY": 313.5658, "EPHEMERIS_TYPE": 0, "CLASSIFICATION_TYPE": "U", "NORAD_CAT_ID": 43833, "ELEMENT_SET_NO": 999, "REV_AT_EPOCH": 38889, "BSTAR": 0.00026020921, "MEAN_MOTION_DOT": 6.657e-05, "MEAN_MOTION_DDOT": 0}, "tle": {"line1": "1 43833U 18102C   25356.94472464  .00006657  00000+0  26021-3 0  9991", "line2": "2 43833  97.3431  59.6958 0011974  46.6576 313.5658 15.26122766388893"}}, "geometry": {"type": "Point", "coordinates": [55.966290413446885, 29.509894438499465]}}, {"type": "Feature", "properties": {"norad_id": 44622, "name": "GAOFEN-10R", "group": "resource", "lat": 64.10033638727839, "lon": 141.8578163831743, "alt_km": 615.3968585405173, "timestamp": "2025-12-23T09:49:06.734128+00:00", "meta": {"OBJECT_NAME": "GAOFEN-10R", "OBJECT_ID": "2019-066A", "EPOCH": "2025-12-22T23:35:11.785920", "MEAN_MOTION": 14.82825081, "ECCENTRICITY": 0.0007164, "INCLINATION": 98.0292, "RA_OF_ASC_NODE": 304.5297, "ARG_OF_PERICENTER": 11.7963, "MEAN_ANOMALY": 348.3417, "EPHEMERIS_TYPE": 0, "CLASSIFICATION_TYPE": "U", "NORAD_CAT_ID": 44622, "ELEMENT_SET_NO": 999, "REV_AT_EPOCH": 33626, "BSTAR": 0.00019301176, "MEAN_MOTION_DOT": 1.508e-05, "MEAN_MOTION_DDOT": 0}, "tle": {"line1": "1 44622U 19066A   25356.98277530  .00001508  00000+0  19301-3 0  9992", "line2": "2 44622  98.0292 304.5297 0007164  11.7963 348.3417 14.82825081336264"}}, "geometry": {"type": "Point", "coordinates": [141.8578163831743, 64.10033638727839]}}]}